[{"OBJECT_NAME":"GRBBETA","OBJECT_ID":"2024-128C","EPOCH":"2026-04-05T06:24:19.446336","MEAN_MOTION":15.06070921,"ECCENTRICITY":0.0049002,"INCLINATION":61.9884,"RA_OF_ASC_NODE":111.9919,"ARG_OF_PERICENTER":119.2711,"MEAN_ANOMALY":241.3293,"EPHEMERIS_TYPE":0,"CLASSIFICATION_TYPE":"U","NORAD_CAT_ID":60237,"ELEMENT_SET_NO":999,"REV_AT_EPOCH":9528,"BSTAR":0.00034012733,"MEAN_MOTION_DOT":4.909e-5,"MEAN_MOTION_DDOT":0},{"OBJECT_NAME":"OOV-CUBE (TUBSAT-30)","OBJECT_ID":"2024-128F","EPOCH":"2026-04-05T07:39:55.116288","MEAN_MOTION":15.02424921,"ECCENTRICITY":0.00522902,"INCLINATION":61.9933,"RA_OF_ASC_NODE":119.5903,"ARG_OF_PERICENTER":117.8444,"MEAN_ANOMALY":242.7959,"EPHEMERIS_TYPE":0,"CLASSIFICATION_TYPE":"U","NORAD_CAT_ID":60240,"ELEMENT_SET_NO":999,"REV_AT_EPOCH":9516,"BSTAR":0.00023670077,"MEAN_MOTION_DOT":3.03e-5,"MEAN_MOTION_DDOT":0},{"OBJECT_NAME":"ROBUSTA-3A (MEDITERRANEE)","OBJECT_ID":"2024-128J","EPOCH":"2026-04-05T03:31:31.461888","MEAN_MOTION":15.10579583,"ECCENTRICITY":0.00493594,"INCLINATION":61.9848,"RA_OF_ASC_NODE":106.3145,"ARG_OF_PERICENTER":113.0385,"MEAN_ANOMALY":247.5926,"EPHEMERIS_TYPE":0,"CLASSIFICATION_TYPE":"U","NORAD_CAT_ID":60243,"ELEMENT_SET_NO":999,"REV_AT_EPOCH":9538,"BSTAR":0.00049163731,"MEAN_MOTION_DOT":8.178e-5,"MEAN_MOTION_DDOT":0},{"OBJECT_NAME":"LASARSAT","OBJECT_ID":"2024-247Q","EPOCH":"2026-04-04T00:44:37.904064","MEAN_MOTION":15.42003564,"ECCENTRICITY":0.00053797,"INCLINATION":44.9765,"RA_OF_ASC_NODE":317.4987,"ARG_OF_PERICENTER":237.3439,"MEAN_ANOMALY":122.693,"EPHEMERIS_TYPE":0,"CLASSIFICATION_TYPE":"U","NORAD_CAT_ID":62391,"ELEMENT_SET_NO":999,"REV_AT_EPOCH":7185,"BSTAR":0.0012739779,"MEAN_MOTION_DOT":0.00055577,"MEAN_MOTION_DDOT":0},{"OBJECT_NAME":"CROCUBE","OBJECT_ID":"2024-247T","EPOCH":"2026-04-05T00:16:20.157888","MEAN_MOTION":15.43418094,"ECCENTRICITY":0.0005083,"INCLINATION":44.9735,"RA_OF_ASC_NODE":310.3631,"ARG_OF_PERICENTER":240.7464,"MEAN_ANOMALY":119.2917,"EPHEMERIS_TYPE":0,"CLASSIFICATION_TYPE":"U","NORAD_CAT_ID":62394,"ELEMENT_SET_NO":999,"REV_AT_EPOCH":7202,"BSTAR":0.00087808243,"MEAN_MOTION_DOT":0.00039986,"MEAN_MOTION_DDOT":0},{"OBJECT_NAME":"FORESAIL-1 PRIME","OBJECT_ID":"2025-276DS","EPOCH":"2026-04-05T04:10:46.000992","MEAN_MOTION":15.18039378,"ECCENTRICITY":0.00027626,"INCLINATION":97.4231,"RA_OF_ASC_NODE":169.8061,"ARG_OF_PERICENTER":36.0138,"MEAN_ANOMALY":324.1281,"EPHEMERIS_TYPE":0,"CLASSIFICATION_TYPE":"U","NORAD_CAT_ID":66778,"ELEMENT_SET_NO":999,"REV_AT_EPOCH":1932,"BSTAR":0.0003605648,"MEAN_MOTION_DOT":7.275e-5,"MEAN_MOTION_DDOT":0},{"OBJECT_NAME":"KNACKSAT-2","OBJECT_ID":"1998-067XZ","EPOCH":"2026-04-04T18:57:48.329280","MEAN_MOTION":15.54148205,"ECCENTRICITY":0.00107207,"INCLINATION":51.6331,"RA_OF_ASC_NODE":301.9471,"ARG_OF_PERICENTER":281.6024,"MEAN_ANOMALY":78.3763,"EPHEMERIS_TYPE":0,"CLASSIFICATION_TYPE":"U","NORAD_CAT_ID":67683,"ELEMENT_SET_NO":999,"REV_AT_EPOCH":884,"BSTAR":0.00075544083,"MEAN_MOTION_DOT":0.0004999,"MEAN_MOTION_DDOT":0}]
