GRBBETA                 
1 60237U 24128C   26095.26689174  .00004909  00000+0  34013-3 0  9995
2 60237  61.9884 111.9919 0049002 119.2711 241.3293 15.06070921 95283
OOV-CUBE (TUBSAT-30)    
1 60240U 24128F   26095.31938792  .00003030  00000+0  23670-3 0  9999
2 60240  61.9933 119.5903 0052290 117.8444 242.7959 15.02424921 95169
ROBUSTA-3A (MEDITERRAN*)
1 60243U 24128J   26095.14689192  .00008178  00000+0  49164-3 0  9994
2 60243  61.9848 106.3145 0049359 113.0385 247.5926 15.10579583 95388
LASARSAT                
1 62391U 24247Q   26094.03099426  .00055577  00000+0  12740-2 0  9998
2 62391  44.9765 317.4987 0005379 237.3439 122.6930 15.42003564 71856
CROCUBE                 
1 62394U 24247T   26095.01134442  .00039986  00000+0  87808-3 0  9992
2 62394  44.9735 310.3631 0005083 240.7464 119.2917 15.43418094 72028
FORESAIL-1 PRIME        
1 66778U 25276DS  26095.17414353  .00007275  00000+0  36056-3 0  9999
2 66778  97.4231 169.8061 0002762  36.0138 324.1281 15.18039378 19322
KNACKSAT-2              
1 67683U 98067XZ  26094.79014270  .00049990  00000+0  75544-3 0  9999
2 67683  51.6331 301.9471 0010720 281.6024  78.3763 15.54148205  8848
